NORAD_CAT_ID,OBJECT_NAME,OBJECT_TYPE,EPOCH,MEAN_MOTION,ECCENTRICITY,INCLINATION,RA_OF_ASC_NODE,ARG_OF_PERICENTER,MEAN_ANOMALY,BSTAR,MEAN_MOTION_DOT,MEAN_MOTION_DDOT,TLE_LINE0,TLE_LINE1,TLE_LINE2,SEMIMAJOR_AXIS,PERIOD,APOGEE,PERIGEE,DECAYED
55662.0,STARLINK-5479,PAYLOAD,2024-02-12 22:11:54,14.98328337,0.000268,69.9989,270.2065,262.5107,97.5747,-6.7958e-06,-1.74e-06,0.0,0 STARLINK-5479,1 55662U 23021AL  24043.92493407 -.00000174  00000-0 -67958-5 0  9997,2 55662  69.9989 270.2065 0002680 262.5107  97.5747 14.98328337 56072,6950.198,96.107,573.926,570.2,0.0
55662.0,STARLINK-5479,PAYLOAD,2024-02-13 14:13:14,14.98329461,0.000256,69.9986,268.5226,255.859,104.2284,-8.0863e-06,-1.89e-06,0.0,0 STARLINK-5479,1 55662U 23021AL  24044.59253333 -.00000189  00000-0 -80863-5 0  9999,2 55662  69.9986 268.5226 0002560 255.8590 104.2284 14.98329461 56178,6950.195,96.107,573.839,570.28,0.0
55662.0,STARLINK-5479,PAYLOAD,2024-02-13 19:01:38,14.98368081,0.0002377,69.9988,268.018,264.9445,95.1443,-0.00059114,-7.146e-05,0.0,0 STARLINK-5479,1 55662U 23021AL  24044.79280689 -.00007146  00000-0 -59114-3 0  9998,2 55662  69.9988 268.0180 0002377 264.9445  95.1443 14.98368081 55906,6950.075,96.105,573.592,570.288,0.0
55662.0,STARLINK-5479,PAYLOAD,2024-02-13 22:13:54,14.983573,0.0002299,69.9987,267.6809,266.7447,93.3449,-0.0004056,-4.932e-05,0.0,0 STARLINK-5479,1 55662U 23021AL  24044.92632650 -.00004932  00000-0 -40560-3 0  9997,2 55662  69.9987 267.6809 0002299 266.7447  93.3449 14.98357300 56227,6950.108,96.105,573.571,570.376,0.0
55662.0,STARLINK-5479,PAYLOAD,2024-02-14 07:50:43,14.98340237,0.0002914,69.9985,266.6712,260.0272,100.0558,-0.00017634,-2.197e-05,0.0,0 STARLINK-5479,1 55662U 23021AL  24045.32688869 -.00002197  00000-0 -17634-3 0  9992,2 55662  69.9985 266.6712 0002914 260.0272 100.0558 14.98340237 55984,6950.161,96.106,574.052,570.001,0.0
55662.0,STARLINK-5479,PAYLOAD,2024-02-14 20:39:48,14.9832549,0.0002813,69.9984,265.3245,269.944,90.1396,-1.6435e-05,-2.89e-06,0.0,0 STARLINK-5479,1 55662U 23021AL  24045.86097615 -.00000289  00000-0 -16435-4 0  9993,2 55662  69.9984 265.3245 0002813 269.9440  90.1396 14.98325490 56066,6950.207,96.107,574.027,570.117,0.0
55662.0,STARLINK-5479,PAYLOAD,2024-02-14 22:15:56,14.98326192,0.00028,69.9983,265.1562,270.1691,89.9147,-7.6398e-06,-1.84e-06,0.0,0 STARLINK-5479,1 55662U 23021AL  24045.92773566 -.00000184  00000-0 -76398-5 0  9995,2 55662  69.9983 265.1562 0002800 270.1691  89.9147 14.98326192 56377,6950.205,96.107,574.016,570.124,0.0
55662.0,STARLINK-5479,PAYLOAD,2024-02-15 01:28:12,14.98327855,0.0002787,69.9984,264.8194,270.0316,90.0524,1.0948e-05,3.8e-07,0.0,0 STARLINK-5479,1 55662U 23021AL  24046.06125436  .00000038  00000-0  10948-4 0  9992,2 55662  69.9984 264.8194 0002787 270.0316  90.0524 14.98327855 56393,6950.2,96.107,574.002,570.128,0.0
55662.0,STARLINK-5479,PAYLOAD,2024-02-15 19:05:40,14.98330575,0.0002789,69.9983,262.968,270.1867,89.8973,2.9599e-05,2.6e-06,0.0,0 STARLINK-5479,1 55662U 23021AL  24046.79561250  .00000260  00000-0  29599-4 0  9999,2 55662  69.9983 262.9680 0002789 270.1867  89.8973 14.98330575 56202,6950.191,96.107,573.995,570.118,0.0
55662.0,STARLINK-5479,PAYLOAD,2024-02-15 22:17:56,14.98331967,0.0002849,69.9981,262.6311,271.2812,88.8021,1.7322e-05,1.14e-06,0.0,0 STARLINK-5479,1 55662U 23021AL  24046.92913185  .00000114  00000-0  17322-4 0  9991,2 55662  69.9981 262.6311 0002849 271.2812  88.8021 14.98331967 56521,6950.187,96.107,574.032,570.072,0.0
55662.0,STARLINK-5479,PAYLOAD,2024-02-16 14:19:17,14.98331498,0.0002921,69.9979,260.947,271.6994,88.3831,9.6901e-05,1.063e-05,0.0,0 STARLINK-5479,1 55662U 23021AL  24047.59672865  .00001063  00000-0  96901-4 0  9996,2 55662  69.9979 260.9470 0002921 271.6994  88.3831 14.98331498 56625,6950.188,96.107,574.083,570.023,0.0
55662.0,STARLINK-5479,PAYLOAD,2024-02-16 19:07:41,14.98331667,0.0002929,69.998,260.442,271.664,88.4183,9.367e-05,1.025e-05,0.0,0 STARLINK-5479,1 55662U 23021AL  24047.79700842  .00001025  00000-0  93670-4 0  9993,2 55662  69.9980 260.4420 0002929 271.6640  88.4183 14.98331667 56352,6950.188,96.107,574.088,570.017,0.0
55662.0,STARLINK-5479,PAYLOAD,2024-02-16 22:19:57,14.98334062,0.0002923,69.9979,260.1052,271.4227,88.6597,9.1164e-05,9.95e-06,0.0,0 STARLINK-5479,1 55662U 23021AL  24047.93052669  .00000995  00000-0  91164-4 0  9997,2 55662  69.9979 260.1052 0002923 271.4227  88.6597 14.98334062 56679,6950.18,96.107,574.077,570.014,0.0
55662.0,STARLINK-5479,PAYLOAD,2024-02-17 14:21:18,14.98330282,0.0002856,69.9981,258.422,271.6861,88.3971,-1.1748e-05,-2.33e-06,0.0,0 STARLINK-5479,1 55662U 23021AL  24048.59813113 -.00000233  00000-0 -11748-4 0  9996,2 55662  69.9981 258.4220 0002856 271.6861  88.3971 14.98330282 56774,6950.192,96.107,574.042,570.072,0.0
55662.0,STARLINK-5479,PAYLOAD,2024-02-17 20:45:50,14.98329791,0.0002843,69.9982,257.7484,271.0085,89.0748,-1.5796e-05,-2.81e-06,0.0,0 STARLINK-5479,1 55662U 23021AL  24048.86517129 -.00000281  00000-0 -15796-4 0  9994,2 55662  69.9982 257.7484 0002843 271.0085  89.0748 14.98329791 56512,6950.194,96.107,574.034,570.083,0.0
55662.0,STARLINK-5479,PAYLOAD,2024-02-17 22:21:58,14.98329956,0.0002837,69.9981,257.58,270.9971,89.0863,-1.3379e-05,-2.53e-06,0.0,0 STARLINK-5479,1 55662U 23021AL  24048.93193107 -.00000253  00000-0 -13379-4 0  9992,2 55662  69.9981 257.5800 0002837 270.9971  89.0863 14.98329956 56821,6950.193,96.107,574.03,570.086,0.0
55662.0,STARLINK-5479,PAYLOAD,2024-02-18 14:23:19,14.98335574,0.0002829,69.9981,255.8966,271.1594,88.9241,-1.9448e-06,-1.16e-06,0.0,0 STARLINK-5479,1 55662U 23021AL  24049.59952615 -.00000116  00000-0 -19448-5 0  9994,2 55662  69.9981 255.8966 0002829 271.1594  88.9241 14.98335574 56922,6950.176,96.107,574.007,570.074,0.0
55662.0,STARLINK-5479,PAYLOAD,2024-02-18 22:23:59,14.98335495,0.0002814,69.998,255.055,270.794,89.2896,1.254e-05,5.7e-07,0.0,0 STARLINK-5479,1 55662U 23021AL  24049.93332467  .00000057  00000-0  12540-4 0  9996,2 55662  69.9980 255.0550 0002814 270.7940  89.2896 14.98335495 56973,6950.176,96.107,573.997,570.085,0.0
55662.0,STARLINK-5479,PAYLOAD,2024-02-19 00:00:07,14.98335326,0.0002814,69.998,254.8867,270.8213,89.2624,1.0748e-05,3.5e-07,0.0,0 STARLINK-5479,1 55662U 23021AL  24050.00008460  .00000035  00000-0  10748-4 0  9993,2 55662  69.9980 254.8867 0002814 270.8213  89.2624 14.98335326 56685,6950.176,96.107,573.997,570.086,0.0
55662.0,STARLINK-5479,PAYLOAD,2024-02-19 14:25:20,14.98328101,0.0002826,69.9979,253.3717,270.342,89.7415,4.472e-06,-4e-07,0.0,0 STARLINK-5479,1 55662U 23021AL  24050.60092853 -.00000040  00000-0  44720-5 0  9993,2 55662  69.9979 253.3717 0002826 270.3420  89.7415 14.98328101 57079,6950.199,96.107,574.028,570.1,0.0
55662.0,STARLINK-5479,PAYLOAD,2024-02-19 19:13:44,14.98328026,0.0002835,69.998,252.8667,270.3751,89.7083,3.5571e-06,-5.1e-07,0.0,0 STARLINK-5479,1 55662U 23021AL  24050.80120875 -.00000051  00000-0  35571-5 0  9997,2 55662  69.9980 252.8667 0002835 270.3751  89.7083 14.98328026 56803,6950.199,96.107,574.034,570.094,0.0
55662.0,STARLINK-5479,PAYLOAD,2024-02-19 22:26:00,14.98325977,0.0002853,69.998,252.5301,270.2878,89.7954,-1.3905e-05,-2.59e-06,0.0,0 STARLINK-5479,1 55662U 23021AL  24050.93473060 -.00000259  00000-0 -13905-4 0  9995,2 55662  69.9980 252.5301 0002853 270.2878  89.7954 14.98325977 57129,6950.205,96.107,574.053,570.087,0.0
55662.0,STARLINK-5479,PAYLOAD,2024-02-20 14:27:20,14.98333633,0.000288,69.9979,250.8466,267.7046,92.3784,7.2016e-06,-7e-08,0.0,0 STARLINK-5479,1 55662U 23021AL  24051.60232519 -.00000007  00000-0  72016-5 0  9991,2 55662  69.9979 250.8466 0002880 267.7046  92.3784 14.98333633 57228,6950.182,96.107,574.048,570.045,0.0
55662.0,STARLINK-5479,PAYLOAD,2024-02-20 19:15:45,14.98332574,0.0002896,69.998,250.3413,268.3459,91.7368,-2.803e-06,-1.26e-06,0.0,0 STARLINK-5479,1 55662U 23021AL  24051.80260574 -.00000126  00000-0 -28030-5 0  9995,2 55662  69.9980 250.3413 0002896 268.3459  91.7368 14.98332574 56952,6950.185,96.107,574.063,570.037,0.0
55662.0,STARLINK-5479,PAYLOAD,2024-02-20 22:28:01,14.98332563,0.0002896,69.998,250.0046,268.4167,91.6661,-2.2682e-06,-1.2e-06,0.0,0 STARLINK-5479,1 55662U 23021AL  24051.93612547 -.00000120  00000-0 -22682-5 0  9991,2 55662  69.9980 250.0046 0002896 268.4167  91.6661 14.98332563 57277,6950.185,96.107,574.063,570.037,0.0
55662.0,STARLINK-5479,PAYLOAD,2024-02-21 14:29:22,14.98326229,0.0002932,69.9981,248.321,268.6675,91.4148,2.5434e-05,2.1e-06,0.0,0 STARLINK-5479,1 55662U 23021AL  24052.60372849  .00000210  00000-0  25434-4 0  9999,2 55662  69.9981 248.3210 0002932 268.6675  91.4148 14.98326229 57379,6950.205,96.107,574.107,570.032,0.0
55662.0,STARLINK-5479,PAYLOAD,2024-02-21 19:17:46,14.98326818,0.0002933,69.9982,247.816,268.4659,91.6164,2.9751e-05,2.62e-06,0.0,0 STARLINK-5479,1 55662U 23021AL  24052.80400833  .00000262  00000-0  29751-4 0  9999,2 55662  69.9982 247.8160 0002933 268.4659  91.6164 14.98326818 57104,6950.203,96.107,574.106,570.029,0.0
55662.0,STARLINK-5479,PAYLOAD,2024-02-21 22:30:02,14.98326547,0.0002944,69.9982,247.4794,268.4385,91.6437,2.3673e-05,1.89e-06,0.0,0 STARLINK-5479,1 55662U 23021AL  24052.93752886  .00000189  00000-0  23673-4 0  9996,2 55662  69.9982 247.4794 0002944 268.4385  91.6437 14.98326547 57428,6950.204,96.107,574.115,570.022,0.0
55662.0,STARLINK-5479,PAYLOAD,2024-02-22 14:31:22,14.98331658,0.0002953,69.9982,245.796,268.4682,91.6139,2.1536e-05,1.64e-06,0.0,0 STARLINK-5479,1 55662U 23021AL  24053.60512576  .00000164  00000-0  21536-4 0  9990,2 55662  69.9982 245.7960 0002953 268.4682  91.6139 14.98331658 57523,6950.188,96.107,574.105,570.0,0.0
55662.0,STARLINK-5479,PAYLOAD,2024-02-22 19:19:47,14.98331881,0.0002958,69.9983,245.2911,268.6469,91.4351,2.4219e-05,1.96e-06,0.0,0 STARLINK-5479,1 55662U 23021AL  24053.80540534  .00000196  00000-0  24219-4 0  9993,2 55662  69.9983 245.2911 0002958 268.6469  91.4351 14.98331881 57257,6950.187,96.107,574.108,569.996,0.0
